SL-3 R/B                
1 13154U 82039B   25322.11162278  .00003068  00000+0  18872-3 0  9993
2 13154  81.1773 344.4201 0031750 333.8182  26.1436 15.09330136364809
SL-3 R/B                
1 13403U 82079B   25322.11514738  .00005766  00000+0  24039-3 0  9995
2 13403  81.1456 324.6828 0025624 179.6029 180.5229 15.23217661360701
SL-14 R/B               
1 13553U 82092B   25322.18896314  .00000852  00000+0  93308-4 0  9993
2 13553  82.5684 245.6695 0019272 314.7754 160.1673 14.86517704312363
SL-3 R/B                
1 13819U 83010B   25321.99948294  .00014855  00000+0  33884-3 0  9992
2 13819  81.1020 138.7970 0018256  75.6169 284.7099 15.42590402340702
SL-3 R/B                
1 14208U 83075B   25322.09332000  .00012153  00000+0  35252-3 0  9990
2 14208  97.6096 317.7634 0020929 268.6448  91.2398 15.35464715313016
COSMOS 1536             
1 14699U 84013A   25322.15718053  .00007720  00000+0  33450-3 0  9992
2 14699  82.5477 218.5324 0014011 322.0446  37.9801 15.22144162255645
SL-14 R/B               
1 14820U 84027B   25322.17737618  .00000673  00000+0  74445-4 0  9993
2 14820  82.5421 349.5922 0017582 347.9226  12.1566 14.85838065231071
SL-8 R/B                
1 15483U 85006B   25321.85821472  .00000424  00000+0  14962-3 0  9994
2 15483  74.0440 106.9106 0017707  46.8707 105.3824 14.37699341137954
SL-12 R/B(2)            
1 15772U 85042D   25322.19691141  .00000248  00000+0  13321-3 0  9993
2 15772  71.1079 323.2707 0037449 297.3849 135.3961 14.21940851 98541
SL-14 R/B               
1 15945U 85069B   25321.99397493  .00000824  00000+0  90661-4 0  9997
2 15945  82.5244 129.9675 0018297 198.2752 161.7809 14.86281711156240
SL-16 R/B               
1 16182U 85097B   25322.20506867  .00000286  00000+0  16747-3 0  9998
2 16182  71.0044  15.2562 0005466  56.6050 359.8402 14.16578229 71442
SL-14 R/B               
1 16496U 86006B   25322.13272258  .00000970  00000+0  10123-3 0  9995
2 16496  82.5284   4.7045 0075235 282.7631  76.5185 14.86623696132636
