CCSDS_OMM_VERS = 2.0
CREATION_DATE  = 
ORIGINATOR     = 

OBJECT_NAME    = SL-3 R/B
OBJECT_ID      = 1982-039B
CENTER_NAME    = EARTH
REF_FRAME      = TEME
TIME_SYSTEM    = UTC
MEAN_ELEMENT_THEORY = SGP/SGP4

EPOCH          = 2025-11-18T02:40:44.208192
MEAN_MOTION    = 15.09330136
ECCENTRICITY   = .003175
INCLINATION    = 81.1773
RA_OF_ASC_NODE = 344.4201
ARG_OF_PERICENTER = 333.8182
MEAN_ANOMALY   = 26.1436

EPHEMERIS_TYPE = 0
CLASSIFICATION_TYPE = U
NORAD_CAT_ID   = 13154
ELEMENT_SET_NO = 999
REV_AT_EPOCH   = 36480
BSTAR          = .18872E-3
MEAN_MOTION_DOT = .3068E-4
MEAN_MOTION_DDOT = 0

CCSDS_OMM_VERS = 2.0
CREATION_DATE  = 
ORIGINATOR     = 

OBJECT_NAME    = SL-3 R/B
OBJECT_ID      = 1982-079B
CENTER_NAME    = EARTH
REF_FRAME      = TEME
TIME_SYSTEM    = UTC
MEAN_ELEMENT_THEORY = SGP/SGP4

EPOCH          = 2025-11-18T02:45:48.733632
MEAN_MOTION    = 15.23217661
ECCENTRICITY   = .0025624
INCLINATION    = 81.1456
RA_OF_ASC_NODE = 324.6828
ARG_OF_PERICENTER = 179.6029
MEAN_ANOMALY   = 180.5229

EPHEMERIS_TYPE = 0
CLASSIFICATION_TYPE = U
NORAD_CAT_ID   = 13403
ELEMENT_SET_NO = 999
REV_AT_EPOCH   = 36070
BSTAR          = .24039E-3
MEAN_MOTION_DOT = .5766E-4
MEAN_MOTION_DDOT = 0

CCSDS_OMM_VERS = 2.0
CREATION_DATE  = 
ORIGINATOR     = 

OBJECT_NAME    = SL-14 R/B
OBJECT_ID      = 1982-092B
CENTER_NAME    = EARTH
REF_FRAME      = TEME
TIME_SYSTEM    = UTC
MEAN_ELEMENT_THEORY = SGP/SGP4

EPOCH          = 2025-11-18T04:32:06.415296
MEAN_MOTION    = 14.86517704
ECCENTRICITY   = .0019272
INCLINATION    = 82.5684
RA_OF_ASC_NODE = 245.6695
ARG_OF_PERICENTER = 314.7754
MEAN_ANOMALY   = 160.1673

EPHEMERIS_TYPE = 0
CLASSIFICATION_TYPE = U
NORAD_CAT_ID   = 13553
ELEMENT_SET_NO = 999
REV_AT_EPOCH   = 31236
BSTAR          = .93308E-4
MEAN_MOTION_DOT = .852E-5
MEAN_MOTION_DDOT = 0

CCSDS_OMM_VERS = 2.0
CREATION_DATE  = 
ORIGINATOR     = 

OBJECT_NAME    = SL-3 R/B
OBJECT_ID      = 1983-010B
CENTER_NAME    = EARTH
REF_FRAME      = TEME
TIME_SYSTEM    = UTC
MEAN_ELEMENT_THEORY = SGP/SGP4

EPOCH          = 2025-11-17T23:59:15.326016
MEAN_MOTION    = 15.42590402
ECCENTRICITY   = .0018256
INCLINATION    = 81.1020
RA_OF_ASC_NODE = 138.7970
ARG_OF_PERICENTER = 75.6169
MEAN_ANOMALY   = 284.7099

EPHEMERIS_TYPE = 0
CLASSIFICATION_TYPE = U
NORAD_CAT_ID   = 13819
ELEMENT_SET_NO = 999
REV_AT_EPOCH   = 34070
BSTAR          = .33884E-3
MEAN_MOTION_DOT = .14855E-3
MEAN_MOTION_DDOT = 0

CCSDS_OMM_VERS = 2.0
CREATION_DATE  = 
ORIGINATOR     = 

OBJECT_NAME    = SL-3 R/B
OBJECT_ID      = 1983-075B
CENTER_NAME    = EARTH
REF_FRAME      = TEME
TIME_SYSTEM    = UTC
MEAN_ELEMENT_THEORY = SGP/SGP4

EPOCH          = 2025-11-18T02:14:22.848000
MEAN_MOTION    = 15.35464715
ECCENTRICITY   = .0020929
INCLINATION    = 97.6096
RA_OF_ASC_NODE = 317.7634
ARG_OF_PERICENTER = 268.6448
MEAN_ANOMALY   = 91.2398

EPHEMERIS_TYPE = 0
CLASSIFICATION_TYPE = U
NORAD_CAT_ID   = 14208
ELEMENT_SET_NO = 999
REV_AT_EPOCH   = 31301
BSTAR          = .35252E-3
MEAN_MOTION_DOT = .12153E-3
MEAN_MOTION_DDOT = 0

CCSDS_OMM_VERS = 2.0
CREATION_DATE  = 
ORIGINATOR     = 

OBJECT_NAME    = COSMOS 1536
OBJECT_ID      = 1984-013A
CENTER_NAME    = EARTH
REF_FRAME      = TEME
TIME_SYSTEM    = UTC
MEAN_ELEMENT_THEORY = SGP/SGP4

EPOCH          = 2025-11-18T03:46:20.397792
MEAN_MOTION    = 15.22144162
ECCENTRICITY   = .0014011
INCLINATION    = 82.5477
RA_OF_ASC_NODE = 218.5324
ARG_OF_PERICENTER = 322.0446
MEAN_ANOMALY   = 37.9801

EPHEMERIS_TYPE = 0
CLASSIFICATION_TYPE = U
NORAD_CAT_ID   = 14699
ELEMENT_SET_NO = 999
REV_AT_EPOCH   = 25564
BSTAR          = .3345E-3
MEAN_MOTION_DOT = .772E-4
MEAN_MOTION_DDOT = 0

CCSDS_OMM_VERS = 2.0
CREATION_DATE  = 
ORIGINATOR     = 

OBJECT_NAME    = SL-14 R/B
OBJECT_ID      = 1984-027B
CENTER_NAME    = EARTH
REF_FRAME      = TEME
TIME_SYSTEM    = UTC
MEAN_ELEMENT_THEORY = SGP/SGP4

EPOCH          = 2025-11-18T04:15:25.301952
MEAN_MOTION    = 14.85838065
ECCENTRICITY   = .0017582
INCLINATION    = 82.5421
RA_OF_ASC_NODE = 349.5922
ARG_OF_PERICENTER = 347.9226
MEAN_ANOMALY   = 12.1566

EPHEMERIS_TYPE = 0
CLASSIFICATION_TYPE = U
NORAD_CAT_ID   = 14820
ELEMENT_SET_NO = 999
REV_AT_EPOCH   = 23107
BSTAR          = .74445E-4
MEAN_MOTION_DOT = .673E-5
MEAN_MOTION_DDOT = 0

CCSDS_OMM_VERS = 2.0
CREATION_DATE  = 
ORIGINATOR     = 

OBJECT_NAME    = SL-8 R/B
OBJECT_ID      = 1985-006B
CENTER_NAME    = EARTH
REF_FRAME      = TEME
TIME_SYSTEM    = UTC
MEAN_ELEMENT_THEORY = SGP/SGP4

EPOCH          = 2025-11-17T20:35:49.751808
MEAN_MOTION    = 14.37699341
ECCENTRICITY   = .0017707
INCLINATION    = 74.0440
RA_OF_ASC_NODE = 106.9106
ARG_OF_PERICENTER = 46.8707
MEAN_ANOMALY   = 105.3824

EPHEMERIS_TYPE = 0
CLASSIFICATION_TYPE = U
NORAD_CAT_ID   = 15483
ELEMENT_SET_NO = 999
REV_AT_EPOCH   = 13795
BSTAR          = .14962E-3
MEAN_MOTION_DOT = .424E-5
MEAN_MOTION_DDOT = 0

CCSDS_OMM_VERS = 2.0
CREATION_DATE  = 
ORIGINATOR     = 

OBJECT_NAME    = SL-12 R/B(2)
OBJECT_ID      = 1985-042D
CENTER_NAME    = EARTH
REF_FRAME      = TEME
TIME_SYSTEM    = UTC
MEAN_ELEMENT_THEORY = SGP/SGP4

EPOCH          = 2025-11-18T04:43:33.145824
MEAN_MOTION    = 14.21940851
ECCENTRICITY   = .0037449
INCLINATION    = 71.1079
RA_OF_ASC_NODE = 323.2707
ARG_OF_PERICENTER = 297.3849
MEAN_ANOMALY   = 135.3961

EPHEMERIS_TYPE = 0
CLASSIFICATION_TYPE = U
NORAD_CAT_ID   = 15772
ELEMENT_SET_NO = 999
REV_AT_EPOCH   = 9854
BSTAR          = .13321E-3
MEAN_MOTION_DOT = .248E-5
MEAN_MOTION_DDOT = 0

CCSDS_OMM_VERS = 2.0
CREATION_DATE  = 
ORIGINATOR     = 

OBJECT_NAME    = SL-14 R/B
OBJECT_ID      = 1985-069B
CENTER_NAME    = EARTH
REF_FRAME      = TEME
TIME_SYSTEM    = UTC
MEAN_ELEMENT_THEORY = SGP/SGP4

EPOCH          = 2025-11-17T23:51:19.433952
MEAN_MOTION    = 14.86281711
ECCENTRICITY   = .0018297
INCLINATION    = 82.5244
RA_OF_ASC_NODE = 129.9675
ARG_OF_PERICENTER = 198.2752
MEAN_ANOMALY   = 161.7809

EPHEMERIS_TYPE = 0
CLASSIFICATION_TYPE = U
NORAD_CAT_ID   = 15945
ELEMENT_SET_NO = 999
REV_AT_EPOCH   = 15624
BSTAR          = .90661E-4
MEAN_MOTION_DOT = .824E-5
MEAN_MOTION_DDOT = 0

CCSDS_OMM_VERS = 2.0
CREATION_DATE  = 
ORIGINATOR     = 

OBJECT_NAME    = SL-16 R/B
OBJECT_ID      = 1985-097B
CENTER_NAME    = EARTH
REF_FRAME      = TEME
TIME_SYSTEM    = UTC
MEAN_ELEMENT_THEORY = SGP/SGP4

EPOCH          = 2025-11-18T04:55:17.933088
MEAN_MOTION    = 14.16578229
ECCENTRICITY   = .0005466
INCLINATION    = 71.0044
RA_OF_ASC_NODE = 15.2562
ARG_OF_PERICENTER = 56.6050
MEAN_ANOMALY   = 359.8402

EPHEMERIS_TYPE = 0
CLASSIFICATION_TYPE = U
NORAD_CAT_ID   = 16182
ELEMENT_SET_NO = 999
REV_AT_EPOCH   = 7144
BSTAR          = .16747E-3
MEAN_MOTION_DOT = .286E-5
MEAN_MOTION_DDOT = 0

CCSDS_OMM_VERS = 2.0
CREATION_DATE  = 
ORIGINATOR     = 

OBJECT_NAME    = SL-14 R/B
OBJECT_ID      = 1986-006B
CENTER_NAME    = EARTH
REF_FRAME      = TEME
TIME_SYSTEM    = UTC
MEAN_ELEMENT_THEORY = SGP/SGP4

EPOCH          = 2025-11-18T03:11:07.230912
MEAN_MOTION    = 14.86623696
ECCENTRICITY   = .0075235
INCLINATION    = 82.5284
RA_OF_ASC_NODE = 4.7045
ARG_OF_PERICENTER = 282.7631
MEAN_ANOMALY   = 76.5185

EPHEMERIS_TYPE = 0
CLASSIFICATION_TYPE = U
NORAD_CAT_ID   = 16496
ELEMENT_SET_NO = 999
REV_AT_EPOCH   = 13263
BSTAR          = .10123E-3
MEAN_MOTION_DOT = .97E-5
MEAN_MOTION_DDOT = 0

